#dP2019 11 19  0  0  0.00000000      96 __u+U ITR00 FIT  IAC
## 2080 172800.00000000   900.00000000 58806 0.0000000000000
+  105   C06C07C08C09C10C11C13C14C16C18C19C20C21C22C23C24C25
+        C26C27C28C29C30C32C33C34C35C36C37E01E02E03E04E05E07
+        E08E09E11E12E13E14E15E18E19E21E24E25E26E27E30E31E33
+        E36G01G02G03G04G05G06G07G08G09G10G11G12G13G14G15G16
+        G17G18G19G20G21G22G23G24G25G26G27G28G29G30G31G32R01
+        R02R03R05R07R08R09R11R12R13R14R15R16R17R18R19R20R21
+        R23R24R26  0  0  0  0  0  0  0  0  0  0  0  0  0  0
++         8  8  9  8  8  8  8  8  8 12  8  8  8  8  8  8  8
++         8  7  7  7  7  8  8  8  8  8  8  4  5  4  4  4  5
++         5  4  0  4  4  4  5  4  4  5  4  4  5  5  5  4  4
++         5  3  4  3  4  4  3  3  3  3  4  4  4  4  4  4  3
++         3  4  3  4  4  3  3  4  3  3  3  3  3  4  3  3  6
++         6  5  5  5  5  5  5  5  6  5  5  6  6  5  6  6  5
++         5  6  8  0  0  0  0  0  0  0  0  0  0  0  0  0  0
%c M  cc GPS ccc cccc cccc cccc cccc ccccc ccccc ccccc ccccc
%c cc cc ccc ccc cccc cccc cccc cccc ccccc ccccc ccccc ccccc
%f  0.0000000  0.000000000  0.00000000000  0.000000000000000
%f  0.0000000  0.000000000  0.00000000000  0.000000000000000
%i    0    0    0    0      0      0      0      0         0
%i    0    0    0    0      0      0      0      0         0
/* INFORMATION & ANALYSIS CENTER (IAC)      ULTRA-RAPID DATA
/* S/V CLOCKS ARE ALIGNED TO GNSS TIME                      
/* G:C1WC2W R:C1PC2P E:C1XC5X C:C2IC6I J:C1CC2S             
/* PCV:IGS14_2076 OL/AL:FES2004  NONE     YN ORB:CoN CLK:CoN
*  2019 11 19  2 15  0.00000000
PC06 -13066.479126  37576.059566  14889.478162    314.315542
PC07 -13241.935356  22347.769653 -33027.909051   -272.967762
PC08 -25603.499089  26881.655411  19766.597971    -36.392609
PC09  -3118.743004  42193.751243  -1710.151424    126.056556
PC10   3770.664443  28999.750982 -30072.498213   -379.787537
PC11  -2554.640856  25264.987879  11557.872251    -10.518106
PC13 -10427.057911  27944.863315  29760.149004    113.329453
PC14   7999.730173  23864.176050  12015.247927    406.095755
PC16 -10259.147051  39198.497413  12014.337612   -923.692102
PC18   7314.960298  41516.157221   -915.575757     35.329542
PC19 -15101.170013 -23200.449554  -3565.303580    248.650195
PC20   -335.892945 -21068.045592 -18302.857554   -308.689567
PC21 -15127.641293   6275.262720  22604.357904    172.156542
PC22 -21319.092452 -11946.165361  13493.675893   -387.785509
PC23  26123.136089   3321.407399  -9228.971639   -878.632390
PC24  -9685.617980  15989.030627 -20709.777325   -879.620295
PC25  12359.877004  13277.829641 -21210.023885   -418.761484
PC26 -24651.055406   9841.899203  -8563.121265    465.543027
PC27  17757.393428 -15960.523677  14424.455224    227.563827
PC28  15655.862650   3595.526401  22826.320139    218.676268
PC29  -5219.035228 -20805.003410 -17854.136406    148.044879
PC30   8645.338115 -26437.031140  -2155.020040    226.618181
PC32  15078.147234  -6404.643311 -22586.489814   -866.714200
PC33  15141.568574  23144.919332   3648.888630   -582.046299
PC34  -8513.864806  26468.840291   2489.496474   -244.705749
PC35 -15784.593088  -3186.964714 -22787.343923 999999.999999
PC36 -11836.267854 -13644.116241  21302.051491   -903.325475
PC37  25172.794872  -8979.823962   8078.010391   -771.483669
PE01 -18492.322702 -16534.096182  16157.074668   -734.757385
PE02  18575.569936  16507.319855 -16084.510144     92.873886
PE03  12222.698771  25713.652370  -8077.992087   -234.567340
PE04 -18060.952974  -8870.160250  21706.901770   -408.474584
PE05   -849.701208  27679.450448  10444.057891   -430.073922
PE07  13343.232710 -13452.886008 -22745.394307   -301.115786
PE08  18006.247559   8561.327800 -21879.185409   6261.186974
PE09 -13090.644388  13551.256247  22822.304180   6248.388613
PE11 -22977.231561  18034.734459  -4816.275478     48.096182
PE12 -21049.325376   1381.462791 -20762.128609   6093.044342
PE13  22938.296162 -18031.069535   5015.527329    395.524960
PE14 -12242.252954  24265.702360 -11012.159618   -799.503783
PE15  21129.214732  -1785.534558  20665.564459    887.335931
PE18    510.882886 -27993.094567  -4312.966728   -894.586194
PE19 -11066.055247 -26755.919965   6144.635710     -2.839775
PE21   2455.525140 -16279.437475  24604.332636   -566.667211
PE24 -22072.243442   6448.178178 -18631.628664   5759.964518
PE25  -2558.444391  16245.975383 -24599.092475   -496.147714
PE26  11243.541921 -23706.059693 -13710.306315   3860.995352
PE27  22091.342550  -6488.501567  18614.852943    342.783757
PE30  28653.406838   7258.216260   1682.216500   4373.429207
PE31 -28688.292457  -7094.047951  -1692.944971   -470.545755
PE33  -6916.418298 -15537.694662 -24217.411021   -471.748132
PE36 -11282.666840  23733.958920  13624.724431    635.050873
PG01   4895.222391 -17169.208494 -19758.558471   -201.945977
PG02 -21540.663232  15179.220327   3346.524727   -349.586553
PG03  -7103.602612 -19084.277635 -17159.427171    -38.858871
PG04  -7415.501690 -21617.751808  13526.476027    -10.565148
PG05 -13163.994162   9405.590138  20956.266252     -3.628118
PG06 -24244.387517   4654.567048  -9788.375108   -128.017947
PG07 -12686.550077 -10559.215764  21177.100465   -151.796761
PG08   5985.881380 -24832.703793   6877.903505    -13.841388
PG09  -8058.219238 -21762.497534  12856.582779    -86.929935
PG10  23685.734523  10551.388934  -6214.215441   -139.990011
PG11   3853.689440 -22724.931994 -13965.925213   -444.037966
PG12   1052.332826  17747.001643 -20005.911617    182.068627
PG13 -12806.278699  19177.813329  12991.269066    -31.967849
PG14  15312.264081  -6677.166698 -20282.248161    -49.698106
PG15  -3313.112997  25477.023631   5576.987007   -271.668755
PG16  15198.830617  -5748.317138  20909.680675    -94.536448
PG17 -13793.073117  -5504.816380 -21603.539081    165.517954
PG18  12509.333996 -18732.804509 -14501.344758    101.099736
PG19 -15255.799529   2690.169184 -21871.051083   -237.863059
PG20  21895.780723  14538.999387   4389.355225    527.497775
PG21  15702.470543   7958.031946  20624.526304    -83.914056
PG22    505.374163 -17018.611938 -20189.396212   -772.570049
PG23  -2009.586510 -25970.419541   4333.213469   -154.700374
PG24  -6237.747596  18611.554723 -17904.138761     -5.078224
PG25  15342.453992  19159.092027 -10689.388679    -17.232166
PG26  21703.118344    555.638892  15418.090821     87.308546
PG27  12116.988489 -16744.646761  16386.136557   -124.254972
PG28 -22317.258718 -12257.799914  -6725.629661    754.486694
PG29   5158.953992  22942.046275  12295.359027     40.581184
PG30 -21578.560554  -2691.705966  15413.068380    -86.970530
PG31  25087.753301  -5751.702036  -7483.159868     -4.131963
PG32  14888.160582   4614.251872 -21457.527078    129.403176
PR01  14548.426636   6881.828368 -19792.545958     52.890950
PR02   4466.898191 -13373.495883 -21212.483222    398.427809
PR03  -7065.199290 -22864.349922  -8729.357280      5.076469
PR05 -13531.449304  -4619.987607  21119.512234     39.670088
PR07   7353.149975  23009.332697   8287.390491    -29.604858
PR08  14410.150012  19262.397195  -8461.746729     14.356010
PR09 -13243.204818   9061.569698 -19834.406467    101.829201
PR11  20313.837661   7472.906844 -13440.972181     19.522926
PR12  25372.410810   -110.454793   2776.499818     80.455089
PR13  15757.010763  -8096.425485  18340.210045    -31.139443
PR14  -2842.582063 -11070.063121  22821.708363     45.221285
PR15 -19702.323951  -7760.072468  14245.185307    104.804461
PR16 -25249.052364    733.384198  -3074.223922      0.241044
PR17   6393.296735 -20879.712207 -13211.272972    277.006683
PR18  -5664.324221 -10072.653212 -22716.593353     15.005454
PR19 -14672.124934   5482.434354 -20125.009640    -64.644761
PR20 -15792.089192  19604.594742  -4220.694772   -396.558979
PR21  -5872.093792  20528.347888  13933.310684    -86.143212
PR23  16129.356005 -11139.988006  16322.797468    267.712871
PR24  14753.334463 -20706.507992   2003.609039   -186.901818
PR26 -16136.115288  18091.774330  -7867.952115      9.639365
EOF
